STARLINK-2636
1 28357C 21038E   21325.11441324  .00010062  00000-0  67430-3 0  3259
2 28357  53.0534 207.7117 0001966  73.4271  86.0928 15.06379528    10
